{"type":"FeatureCollection","features":[{"type":"Feature","properties":{"ward_id":"W01","name":"Barakhamba Road High-Rise Corridor","short_name":"Barakhamba Road"},"geometry":{"type":"MultiLineString","coordinates":[[[77.2225,28.623],[77.22375,28.623]],[[77.2225,28.623],[77.2225,28.624063]],[[77.22375,28.623],[77.225,28.623]],[[77.225,28.623],[77.22625,28.623]],[[77.22625,28.623],[77.2275,28.623]],[[77.2275,28.623],[77.22875,28.623]],[[77.22875,28.623],[77.23,28.623]],[[77.23,28.623],[77.23,28.624063]],[[77.2225,28.624063],[77.2225,28.625125]],[[77.23,28.624063],[77.23,28.625125]],[[77.2225,28.625125],[77.2225,28.626188]],[[77.23,28.625125],[77.23,28.626188]],[[77.2225,28.626188],[77.2225,28.62725]],[[77.23,28.626188],[77.23,28.62725]],[[77.2225,28.62725],[77.2225,28.628312]],[[77.23,28.62725],[77.23,28.628312]],[[77.2225,28.628312],[77.2225,28.629375]],[[77.23,28.628312],[77.23,28.629375]],[[77.2225,28.629375],[77.2225,28.630437]],[[77.23,28.629375],[77.23,28.630437]],[[77.2225,28.630437],[77.2225,28.6315]],[[77.23,28.630437],[77.23,28.6315]],[[77.2225,28.6315],[77.2225,28.632563]],[[77.23,28.6315],[77.23,28.632563]],[[77.2225,28.632563],[77.2225,28.633625]],[[77.23,28.632563],[77.23,28.633625]],[[77.2225,28.633625],[77.2225,28.634688]],[[77.23,28.633625],[77.23,28.634688]],[[77.2225,28.634688],[77.2225,28.63575]],[[77.23,28.634688],[77.23,28.63575]],[[77.2225,28.63575],[77.2225,28.636813]],[[77.23,28.63575],[77.23,28.636813]],[[77.2225,28.636813],[77.2225,28.637875]],[[77.23,28.636813],[77.23,28.637875]],[[77.2225,28.637875],[77.2225,28.638938]],[[77.23,28.637875],[77.23,28.638938]],[[77.2225,28.64],[77.22375,28.64]],[[77.2225,28.638938],[77.2225,28.64]],[[77.22375,28.64],[77.225,28.64]],[[77.225,28.64],[77.22625,28.64]],[[77.22625,28.64],[77.2275,28.64]],[[77.2275,28.64],[77.22875,28.64]],[[77.22875,28.64],[77.23,28.64]],[[77.23,28.638938],[77.23,28.64]]]}},{"type":"Feature","properties":{"ward_id":"W02","name":"Janpath & Tolstoy Marg Precinct","short_name":"Janpath–Tolstoy Marg"},"geometry":{"type":"MultiLineString","coordinates":[[[77.21,28.623],[77.21125,28.623]],[[77.21,28.623],[77.21,28.624063]],[[77.21125,28.623],[77.2125,28.623]],[[77.2125,28.623],[77.21375,28.623]],[[77.21375,28.623],[77.215,28.623]],[[77.215,28.623],[77.21625,28.623]],[[77.21625,28.623],[77.2175,28.623]],[[77.2175,28.623],[77.21875,28.623]],[[77.21875,28.623],[77.22,28.623]],[[77.22,28.623],[77.22125,28.623]],[[77.22125,28.623],[77.2225,28.623]],[[77.2225,28.623],[77.2225,28.624063]],[[77.21,28.624063],[77.21,28.625125]],[[77.2225,28.624063],[77.2225,28.625125]],[[77.21,28.625125],[77.21,28.626188]],[[77.2225,28.625125],[77.2225,28.626188]],[[77.21,28.626188],[77.21,28.62725]],[[77.2225,28.626188],[77.2225,28.62725]],[[77.21,28.62725],[77.21,28.628312]],[[77.2225,28.62725],[77.2225,28.628312]],[[77.21,28.629375],[77.21125,28.629375]],[[77.21,28.628312],[77.21,28.629375]],[[77.21125,28.629375],[77.2125,28.629375]],[[77.2125,28.629375],[77.21375,28.629375]],[[77.21375,28.629375],[77.215,28.629375]],[[77.215,28.629375],[77.21625,28.629375]],[[77.21625,28.629375],[77.2175,28.629375]],[[77.2175,28.629375],[77.21875,28.629375]],[[77.21875,28.629375],[77.22,28.629375]],[[77.22,28.629375],[77.22125,28.629375]],[[77.22125,28.629375],[77.2225,28.629375]],[[77.2225,28.628312],[77.2225,28.629375]]]}},{"type":"Feature","properties":{"ward_id":"W03","name":"Gole Market & Baba Kharak Singh Marg","short_name":"Gole Market"},"geometry":{"type":"MultiLineString","coordinates":[[[77.21,28.633625],[77.21125,28.633625]],[[77.21,28.633625],[77.21,28.634688]],[[77.21125,28.633625],[77.2125,28.633625]],[[77.2125,28.633625],[77.21375,28.633625]],[[77.21375,28.633625],[77.215,28.633625]],[[77.215,28.633625],[77.21625,28.633625]],[[77.21625,28.633625],[77.2175,28.633625]],[[77.2175,28.633625],[77.2175,28.634688]],[[77.21,28.634688],[77.21,28.63575]],[[77.2175,28.634688],[77.2175,28.63575]],[[77.21,28.63575],[77.21,28.636813]],[[77.2175,28.63575],[77.2175,28.636813]],[[77.21,28.636813],[77.21,28.637875]],[[77.2175,28.636813],[77.2175,28.637875]],[[77.21,28.637875],[77.21,28.638938]],[[77.2175,28.637875],[77.2175,28.638938]],[[77.21,28.64],[77.21125,28.64]],[[77.21,28.638938],[77.21,28.64]],[[77.21125,28.64],[77.2125,28.64]],[[77.2125,28.64],[77.21375,28.64]],[[77.21375,28.64],[77.215,28.64]],[[77.215,28.64],[77.21625,28.64]],[[77.21625,28.64],[77.2175,28.64]],[[77.2175,28.638938],[77.2175,28.64]]]}},{"type":"Feature","properties":{"ward_id":"W04","name":"Parliament Street Commercial Zone","short_name":"Parliament Street"},"geometry":{"type":"MultiLineString","coordinates":[[[77.21,28.629375],[77.21125,28.629375]],[[77.21,28.629375],[77.21,28.630437]],[[77.21125,28.629375],[77.2125,28.629375]],[[77.2125,28.629375],[77.21375,28.629375]],[[77.21375,28.629375],[77.215,28.629375]],[[77.215,28.629375],[77.21625,28.629375]],[[77.21625,28.629375],[77.2175,28.629375]],[[77.2175,28.629375],[77.2175,28.630437]],[[77.21,28.630437],[77.21,28.6315]],[[77.2175,28.630437],[77.2175,28.6315]],[[77.21,28.6315],[77.21,28.632563]],[[77.2175,28.6315],[77.2175,28.632563]],[[77.21,28.633625],[77.21125,28.633625]],[[77.21,28.632563],[77.21,28.633625]],[[77.21125,28.633625],[77.2125,28.633625]],[[77.2125,28.633625],[77.21375,28.633625]],[[77.21375,28.633625],[77.215,28.633625]],[[77.215,28.633625],[77.21625,28.633625]],[[77.21625,28.633625],[77.2175,28.633625]],[[77.2175,28.632563],[77.2175,28.633625]]]}},{"type":"Feature","properties":{"ward_id":"W05","name":"Kasturba Gandhi Marg District","short_name":"Kasturba Gandhi Marg"},"geometry":{"type":"MultiLineString","coordinates":[[[77.2175,28.633625],[77.21875,28.633625]],[[77.2175,28.633625],[77.2175,28.634688]],[[77.21875,28.633625],[77.22,28.633625]],[[77.22,28.633625],[77.22125,28.633625]],[[77.22125,28.633625],[77.2225,28.633625]],[[77.2225,28.633625],[77.2225,28.634688]],[[77.2175,28.634688],[77.2175,28.63575]],[[77.2225,28.634688],[77.2225,28.63575]],[[77.2175,28.63575],[77.2175,28.636813]],[[77.2225,28.63575],[77.2225,28.636813]],[[77.2175,28.636813],[77.2175,28.637875]],[[77.2225,28.636813],[77.2225,28.637875]],[[77.2175,28.637875],[77.2175,28.638938]],[[77.2225,28.637875],[77.2225,28.638938]],[[77.2175,28.64],[77.21875,28.64]],[[77.2175,28.638938],[77.2175,28.64]],[[77.21875,28.64],[77.22,28.64]],[[77.22,28.64],[77.22125,28.64]],[[77.22125,28.64],[77.2225,28.64]],[[77.2225,28.638938],[77.2225,28.64]]]}},{"type":"Feature","properties":{"ward_id":"W06","name":"Connaught Place Inner Circle & Central Park","short_name":"CP Inner Circle"},"geometry":{"type":"MultiLineString","coordinates":[[[77.2175,28.629375],[77.21875,28.629375]],[[77.2175,28.629375],[77.2175,28.630437]],[[77.21875,28.629375],[77.22,28.629375]],[[77.22,28.629375],[77.22125,28.629375]],[[77.22125,28.629375],[77.2225,28.629375]],[[77.2225,28.629375],[77.2225,28.630437]],[[77.2175,28.630437],[77.2175,28.6315]],[[77.2225,28.630437],[77.2225,28.6315]],[[77.2175,28.6315],[77.2175,28.632563]],[[77.2225,28.6315],[77.2225,28.632563]],[[77.2175,28.633625],[77.21875,28.633625]],[[77.2175,28.632563],[77.2175,28.633625]],[[77.21875,28.633625],[77.22,28.633625]],[[77.22,28.633625],[77.22125,28.633625]],[[77.22125,28.633625],[77.2225,28.633625]],[[77.2225,28.632563],[77.2225,28.633625]]]}}]}